{"type": "FeatureCollection", "features": [ {"type": "Feature", "properties": {"norad_id": 41836, "name": "HIMAWARI-9", "group": "weather", "lat": -0.0089816317731769, "lon": 178.72135558943035, "alt_km": 35793.64524070063, "timestamp": "2025-12-04T21:36:15.516556+00:00", "meta": {"OBJECT_NAME": "HIMAWARI-9", "OBJECT_ID": "2016-064A", "EPOCH": "2025-12-04T14:23:45.762144", "MEAN_MOTION": 1.00266965, "ECCENTRICITY": 0.00024988, "INCLINATION": 0.0187, "RA_OF_ASC_NODE": 359.6866, "ARG_OF_PERICENTER": 305.2934, "MEAN_ANOMALY": 125.3693, "EPHEMERIS_TYPE": 0, "CLASSIFICATION_TYPE": "U", "NORAD_CAT_ID": 41836, "ELEMENT_SET_NO": 999, "REV_AT_EPOCH": 3325, "BSTAR": 0, "MEAN_MOTION_DOT": 0, "MEAN_MOTION_DDOT": 0}, "tle": {"line1": "1 41836U 16064A   25338.59983521  .00000000  00000+0  00000+0 0  9990", "line2": "2 41836   0.0187 359.6866 0002498 305.2934 125.3693  1.00266965 33259"}}, "geometry": {"type": "Point", "coordinates": [178.72135558943035, -0.0089816317731769]}}, {"type": "Feature", "properties": {"norad_id": 41866, "name": "GOES 16", "group": "weather", "lat": -0.03111614619069748, "lon": -66.63865999859354, "alt_km": 35774.44580669921, "timestamp": "2025-12-04T21:36:15.516568+00:00", "meta": {"OBJECT_NAME": "GOES 16", "OBJECT_ID": "2016-071A", "EPOCH": "2025-12-04T11:30:58.872384", "MEAN_MOTION": 1.00270678, "ECCENTRICITY": 0.00034612, "INCLINATION": 0.0623, "RA_OF_ASC_NODE": 104.8756, "ARG_OF_PERICENTER": 153.1036, "MEAN_ANOMALY": 243.6464, "EPHEMERIS_TYPE": 0, "CLASSIFICATION_TYPE": "U", "NORAD_CAT_ID": 41866, "ELEMENT_SET_NO": 999, "REV_AT_EPOCH": 3315, "BSTAR": 0, "MEAN_MOTION_DOT": -7.6e-07, "MEAN_MOTION_DDOT": 0}, "tle": {"line1": "1 41866U 16071A   25338.47984806 -.00000076  00000+0  00000+0 0  9999", "line2": "2 41866   0.0623 104.8756 0003461 153.1036 243.6464  1.00270678 33154"}}, "geometry": {"type": "Point", "coordinates": [-66.63865999859354, -0.03111614619069748]}}, {"type": "Feature", "properties": {"norad_id": 41882, "name": "FENGYUN 4A", "group": "weather", "lat": 1.7899061023821787, "lon": 161.7192409288868, "alt_km": 35774.74103192903, "timestamp": "2025-12-04T21:36:15.516581+00:00", "meta": {"OBJECT_NAME": "FENGYUN 4A", "OBJECT_ID": "2016-077A", "EPOCH": "2025-12-04T14:18:46.240128", "MEAN_MOTION": 1.00277548, "ECCENTRICITY": 0.00050544, "INCLINATION": 1.8271, "RA_OF_ASC_NODE": 82.471, "ARG_OF_PERICENTER": 142.5089, "MEAN_ANOMALY": 187.135, "EPHEMERIS_TYPE": 0, "CLASSIFICATION_TYPE": "U", "NORAD_CAT_ID": 41882, "ELEMENT_SET_NO": 999, "REV_AT_EPOCH": 3297, "BSTAR": 0, "MEAN_MOTION_DOT": -3.43e-06, "MEAN_MOTION_DDOT": 0}, "tle": {"line1": "1 41882U 16077A   25338.59636852 -.00000343  00000+0  00000+0 0  9998", "line2": "2 41882   1.8271  82.4710 0005054 142.5089 187.1350  1.00277548 32979"}}, "geometry": {"type": "Point", "coordinates": [161.7192409288868, 1.7899061023821787]}}, {"type": "Feature", "properties": {"norad_id": 41884, "name": "CYGFM05", "group": "weather", "lat": 1.7524176401828715, "lon": -84.18766895439015, "alt_km": 421.20828586104017, "timestamp": "2025-12-04T21:36:15.516592+00:00", "meta": {"OBJECT_NAME": "CYGFM05", "OBJECT_ID": "2016-078A", "EPOCH": "2025-12-04T14:39:01.260000", "MEAN_MOTION": 15.47185715, "ECCENTRICITY": 0.00094017, "INCLINATION": 34.9584, "RA_OF_ASC_NODE": 100.2137, "ARG_OF_PERICENTER": 105.694, "MEAN_ANOMALY": 254.4819, "EPHEMERIS_TYPE": 0, "CLASSIFICATION_TYPE": "U", "NORAD_CAT_ID": 41884, "ELEMENT_SET_NO": 999, "REV_AT_EPOCH": 49850, "BSTAR": 0.00070479497, "MEAN_MOTION_DOT": 0.00037095, "MEAN_MOTION_DDOT": 0}, "tle": {"line1": "1 41884U 16078A   25338.61043125  .00037095  00000+0  70479-3 0  9993", "line2": "2 41884  34.9584 100.2137 0009401 105.6940 254.4819 15.47185715498506"}}, "geometry": {"type": "Point", "coordinates": [-84.18766895439015, 1.7524176401828715]}}, {"type": "Feature", "properties": {"norad_id": 41885, "name": "CYGFM04", "group": "weather", "lat": -11.502575344245185, "lon": 56.373897180564946, "alt_km": 422.68702848306293, "timestamp": "2025-12-04T21:36:15.516602+00:00", "meta": {"OBJECT_NAME": "CYGFM04", "OBJECT_ID": "2016-078B", "EPOCH": "2025-12-04T15:30:30.236256", "MEAN_MOTION": 15.49858101, "ECCENTRICITY": 0.00084837, "INCLINATION": 34.9351, "RA_OF_ASC_NODE": 74.9891, "ARG_OF_PERICENTER": 135.8946, "MEAN_ANOMALY": 224.2453, "EPHEMERIS_TYPE": 0, "CLASSIFICATION_TYPE": "U", "NORAD_CAT_ID": 41885, "ELEMENT_SET_NO": 999, "REV_AT_EPOCH": 49868, "BSTAR": 0.00073562072, "MEAN_MOTION_DOT": 0.00042553, "MEAN_MOTION_DDOT": 0}, "tle": {"line1": "1 41885U 16078B   25338.64618329  .00042553  00000+0  73562-3 0  9992", "line2": "2 41885  34.9351  74.9891 0008483 135.8946 224.2453 15.49858101498689"}}, "geometry": {"type": "Point", "coordinates": [56.373897180564946, -11.502575344245185]}}, {"type": "Feature", "properties": {"norad_id": 41886, "name": "CYGFM02", "group": "weather", "lat": -24.271782777553863, "lon": 31.524944713803905, "alt_km": 421.4701186138527, "timestamp": "2025-12-04T21:36:15.516614+00:00", "meta": {"OBJECT_NAME": "CYGFM02", "OBJECT_ID": "2016-078C", "EPOCH": "2025-12-04T15:37:24.347136", "MEAN_MOTION": 15.51203818, "ECCENTRICITY": 0.0010208, "INCLINATION": 34.9438, "RA_OF_ASC_NODE": 73.3872, "ARG_OF_PERICENTER": 135.3392, "MEAN_ANOMALY": 224.8154, "EPHEMERIS_TYPE": 0, "CLASSIFICATION_TYPE": "U", "NORAD_CAT_ID": 41886, "ELEMENT_SET_NO": 999, "REV_AT_EPOCH": 49881, "BSTAR": 0.00072442613, "MEAN_MOTION_DOT": 0.00044003, "MEAN_MOTION_DDOT": 0}, "tle": {"line1": "1 41886U 16078C   25338.65097624  .00044003  00000+0  72443-3 0  9992", "line2": "2 41886  34.9438  73.3872 0010208 135.3392 224.8154 15.51203818498817"}}, "geometry": {"type": "Point", "coordinates": [31.524944713803905, -24.271782777553863]}}, {"type": "Feature", "properties": {"norad_id": 41887, "name": "CYGFM01", "group": "weather", "lat": -13.935955915449686, "lon": -58.45505543581467, "alt_km": 425.30516833038564, "timestamp": "2025-12-04T21:36:15.516625+00:00", "meta": {"OBJECT_NAME": "CYGFM01", "OBJECT_ID": "2016-078D", "EPOCH": "2025-12-04T14:31:57.855072", "MEAN_MOTION": 15.47751963, "ECCENTRICITY": 0.00089831, "INCLINATION": 34.9415, "RA_OF_ASC_NODE": 102.652, "ARG_OF_PERICENTER": 97.1163, "MEAN_ANOMALY": 263.058, "EPHEMERIS_TYPE": 0, "CLASSIFICATION_TYPE": "U", "NORAD_CAT_ID": 41887, "ELEMENT_SET_NO": 999, "REV_AT_EPOCH": 49844, "BSTAR": 0.00071841752, "MEAN_MOTION_DOT": 0.00038571, "MEAN_MOTION_DDOT": 0}, "tle": {"line1": "1 41887U 16078D   25338.60553073  .00038571  00000+0  71842-3 0  9998", "line2": "2 41887  34.9415 102.6520 0008983  97.1163 263.0580 15.47751963498448"}}, "geometry": {"type": "Point", "coordinates": [-58.45505543581467, -13.935955915449686]}}, {"type": "Feature", "properties": {"norad_id": 41888, "name": "CYGFM08", "group": "weather", "lat": -21.348942227907326, "lon": -62.15232699837511, "alt_km": 421.43792986635344, "timestamp": "2025-12-04T21:36:15.516637+00:00", "meta": {"OBJECT_NAME": "CYGFM08", "OBJECT_ID": "2016-078E", "EPOCH": "2025-12-04T14:28:31.657152", "MEAN_MOTION": 15.4893455, "ECCENTRICITY": 0.00107085, "INCLINATION": 34.9456, "RA_OF_ASC_NODE": 85.7538, "ARG_OF_PERICENTER": 122.7202, "MEAN_ANOMALY": 237.4553, "EPHEMERIS_TYPE": 0, "CLASSIFICATION_TYPE": "U", "NORAD_CAT_ID": 41888, "ELEMENT_SET_NO": 999, "REV_AT_EPOCH": 49867, "BSTAR": 0.00073658423, "MEAN_MOTION_DOT": 0.00041266, "MEAN_MOTION_DDOT": 0}, "tle": {"line1": "1 41888U 16078E   25338.60314418  .00041266  00000+0  73658-3 0  9999", "line2": "2 41888  34.9456  85.7538 0010708 122.7202 237.4553 15.48934550498677"}}, "geometry": {"type": "Point", "coordinates": [-62.15232699837511, -21.348942227907326]}}, {"type": "Feature", "properties": {"norad_id": 41890, "name": "CYGFM07", "group": "weather", "lat": -6.1786916515923895, "lon": -98.24759210145973, "alt_km": 413.54456831754123, "timestamp": "2025-12-04T21:36:15.516648+00:00", "meta": {"OBJECT_NAME": "CYGFM07", "OBJECT_ID": "2016-078G", "EPOCH": "2025-12-04T14:36:03.047904", "MEAN_MOTION": 15.49507518, "ECCENTRICITY": 0.00090464, "INCLINATION": 34.9473, "RA_OF_ASC_NODE": 74.7461, "ARG_OF_PERICENTER": 141.1948, "MEAN_ANOMALY": 218.9424, "EPHEMERIS_TYPE": 0, "CLASSIFICATION_TYPE": "U", "NORAD_CAT_ID": 41890, "ELEMENT_SET_NO": 999, "REV_AT_EPOCH": 49869, "BSTAR": 0.00073299786, "MEAN_MOTION_DOT": 0.00041881, "MEAN_MOTION_DDOT": 0}, "tle": {"line1": "1 41890U 16078G   25338.60836861  .00041881  00000+0  73300-3 0  9990", "line2": "2 41890  34.9473  74.7461 0009046 141.1948 218.9424 15.49507518498691"}}, "geometry": {"type": "Point", "coordinates": [-98.24759210145973, -6.1786916515923895]}}, {"type": "Feature", "properties": {"norad_id": 41891, "name": "CYGFM03", "group": "weather", "lat": 15.608300283108008, "lon": 98.33209051351022, "alt_km": 416.2465851938359, "timestamp": "2025-12-04T21:36:15.516660+00:00", "meta": {"OBJECT_NAME": "CYGFM03", "OBJECT_ID": "2016-078H", "EPOCH": "2025-12-04T15:17:54.462624", "MEAN_MOTION": 15.4941283, "ECCENTRICITY": 0.00083348, "INCLINATION": 34.9433, "RA_OF_ASC_NODE": 76.4691, "ARG_OF_PERICENTER": 128.1417, "MEAN_ANOMALY": 232.0057, "EPHEMERIS_TYPE": 0, "CLASSIFICATION_TYPE": "U", "NORAD_CAT_ID": 41891, "ELEMENT_SET_NO": 999, "REV_AT_EPOCH": 49867, "BSTAR": 0.00071885813, "MEAN_MOTION_DOT": 0.0004092, "MEAN_MOTION_DDOT": 0}, "tle": {"line1": "1 41891U 16078H   25338.63743591  .00040920  00000+0  71886-3 0  9991", "line2": "2 41891  34.9433  76.4691 0008334 128.1417 232.0057 15.49412830498676"}}, "geometry": {"type": "Point", "coordinates": [98.33209051351022, 15.608300283108008]}}]}